{
  "type": "FeatureCollection",
  "features": [
    {
      "type": "Feature",
      "properties": {
        "norad_id": 40730,
        "name": "GPS BIIF-10 (PRN 08)",
        "group": "gps-ops",
        "lat": 32.36198106798028,
        "lon": 67.02917388574106,
        "alt_km": 20284.404862042335,
        "timestamp": "2025-12-24T09:46:31.263109+00:00",
        "meta_object_name": "GPS BIIF-10 (PRN 08)",
        "meta_object_id": "2015-033A",
        "meta_epoch": "2025-12-23T05:17:42.404352",
        "meta_mean_motion": 2.00565183,
        "meta_eccentricity": 0.01115799,
        "meta_inclination": 54.1216,
        "meta_ra_of_asc_node": 274.3416,
        "meta_arg_of_pericenter": 27.0753,
        "meta_mean_anomaly": 333.5521,
        "meta_ephemeris_type": 0,
        "meta_classification_type": "U",
        "meta_norad_cat_id": 40730,
        "meta_element_set_no": 999,
        "meta_rev_at_epoch": 7646,
        "meta_bstar": 0,
        "meta_mean_motion_dot": -1.3e-07,
        "meta_mean_motion_ddot": 0,
        "tle_line1": "1 40730U 15033A   25357.22062968 -.00000013  00000+0  00000+0 0  9996",
        "tle_line2": "2 40730  54.1216 274.3416 0111579  27.0753 333.5521  2.00565183 76465"
      },
      "geometry": {
        "type": "Point",
        "coordinates": [
          67.02917388574106,
          32.36198106798028
        ]
      }
    },
    {
      "type": "Feature",
      "properties": {
        "norad_id": 41019,
        "name": "GPS BIIF-11 (PRN 10)",
        "group": "gps-ops",
        "lat": 56.77317767758742,
        "lon": 131.5137002087162,
        "alt_km": 20394.11224713172,
        "timestamp": "2025-12-24T09:46:31.263140+00:00",
        "meta_object_name": "GPS BIIF-11 (PRN 10)",
        "meta_object_id": "2015-062A",
        "meta_epoch": "2025-12-23T06:43:12.895968",
        "meta_mean_motion": 2.00567181,
        "meta_eccentricity": 0.01110751,
        "meta_inclination": 56.8398,
        "meta_ra_of_asc_node": 37.5947,
        "meta_arg_of_pericenter": 230.2304,
        "meta_mean_anomaly": 128.8517,
        "meta_ephemeris_type": 0,
        "meta_classification_type": "U",
        "meta_norad_cat_id": 41019,
        "meta_element_set_no": 999,
        "meta_rev_at_epoch": 7430,
        "meta_bstar": 0,
        "meta_mean_motion_dot": -4.8e-07,
        "meta_mean_motion_ddot": 0,
        "tle_line1": "1 41019U 15062A   25357.28001037 -.00000048  00000+0  00000+0 0  9993",
        "tle_line2": "2 41019  56.8398  37.5947 0111075 230.2304 128.8517  2.00567181 74306"
      },
      "geometry": {
        "type": "Point",
        "coordinates": [
          131.5137002087162,
          56.77317767758742
        ]
      }
    },
    {
      "type": "Feature",
      "properties": {
        "norad_id": 41328,
        "name": "GPS BIIF-12 (PRN 32)",
        "group": "gps-ops",
        "lat": 27.231875056054417,
        "lon": 117.16649397637282,
        "alt_km": 20391.75211876226,
        "timestamp": "2025-12-24T09:46:31.263153+00:00",
        "meta_object_name": "GPS BIIF-12 (PRN 32)",
        "meta_object_id": "2016-007A",
        "meta_epoch": "2025-12-23T08:42:25.433568",
        "meta_mean_motion": 2.00560186,
        "meta_eccentricity": 0.0092686,
        "meta_inclination": 55.412,
        "meta_ra_of_asc_node": 96.4354,
        "meta_arg_of_pericenter": 243.8438,
        "meta_mean_anomaly": 115.2096,
        "meta_ephemeris_type": 0,
        "meta_classification_type": "U",
        "meta_norad_cat_id": 41328,
        "meta_element_set_no": 999,
        "meta_rev_at_epoch": 7231,
        "meta_bstar": 0,
        "meta_mean_motion_dot": 8e-08,
        "meta_mean_motion_ddot": 0,
        "tle_line1": "1 41328U 16007A   25357.36279437  .00000008  00000+0  00000+0 0  9991",
        "tle_line2": "2 41328  55.4120  96.4354 0092686 243.8438 115.2096  2.00560186 72316"
      },
      "geometry": {
        "type": "Point",
        "coordinates": [
          117.16649397637282,
          27.231875056054417
        ]
      }
    },
    {
      "type": "Feature",
      "properties": {
        "norad_id": 43873,
        "name": "GPS BIII-1  (PRN 04)",
        "group": "gps-ops",
        "lat": -51.68177233894988,
        "lon": 39.02022098175739,
        "alt_km": 20192.74515897437,
        "timestamp": "2025-12-24T09:46:31.263165+00:00",
        "meta_object_name": "GPS BIII-1  (PRN 04)",
        "meta_object_id": "2018-109A",
        "meta_epoch": "2025-12-24T00:11:38.701248",
        "meta_mean_motion": 2.00553951,
        "meta_eccentricity": 0.0037615,
        "meta_inclination": 55.5728,
        "meta_ra_of_asc_node": 99.1026,
        "meta_arg_of_pericenter": 195.5466,
        "meta_mean_anomaly": 163.7899,
        "meta_ephemeris_type": 0,
        "meta_classification_type": "U",
        "meta_norad_cat_id": 43873,
        "meta_element_set_no": 999,
        "meta_rev_at_epoch": 5155,
        "meta_bstar": 0,
        "meta_mean_motion_dot": 1.5e-07,
        "meta_mean_motion_ddot": 0,
        "tle_line1": "1 43873U 18109A   25358.00808682  .00000015  00000+0  00000+0 0  9993",
        "tle_line2": "2 43873  55.5728  99.1026 0037615 195.5466 163.7899  2.00553951 51553"
      },
      "geometry": {
        "type": "Point",
        "coordinates": [
          39.02022098175739,
          -51.68177233894988
        ]
      }
    },
    {
      "type": "Feature",
      "properties": {
        "norad_id": 44506,
        "name": "GPS BIII-2  (PRN 18)",
        "group": "gps-ops",
        "lat": -4.074793005625538,
        "lon": 160.8608825564011,
        "alt_km": 20034.028910148754,
        "timestamp": "2025-12-24T09:46:31.263176+00:00",
        "meta_object_name": "GPS BIII-2  (PRN 18)",
        "meta_object_id": "2019-056A",
        "meta_epoch": "2025-12-23T09:23:28.795200",
        "meta_mean_motion": 2.0056658,
        "meta_eccentricity": 0.00577459,
        "meta_inclination": 55.7176,
        "meta_ra_of_asc_node": 338.1305,
        "meta_arg_of_pericenter": 198.6012,
        "meta_mean_anomaly": 332.8304,
        "meta_ephemeris_type": 0,
        "meta_classification_type": "U",
        "meta_norad_cat_id": 44506,
        "meta_element_set_no": 999,
        "meta_rev_at_epoch": 4654,
        "meta_bstar": 0,
        "meta_mean_motion_dot": -6.4e-07,
        "meta_mean_motion_ddot": 0,
        "tle_line1": "1 44506U 19056A   25357.39130550 -.00000064  00000+0  00000+0 0  9997",
        "tle_line2": "2 44506  55.7176 338.1305 0057745 198.6012 332.8304  2.00566580 46544"
      },
      "geometry": {
        "type": "Point",
        "coordinates": [
          160.8608825564011,
          -4.074793005625538
        ]
      }
    },
    {
      "type": "Feature",
      "properties": {
        "norad_id": 45854,
        "name": "GPS BIII-3  (PRN 23)",
        "group": "gps-ops",
        "lat": 40.96288680948033,
        "lon": -179.25112648573838,
        "alt_km": 20136.6312800837,
        "timestamp": "2025-12-24T09:46:31.263188+00:00",
        "meta_object_name": "GPS BIII-3  (PRN 23)",
        "meta_object_id": "2020-041A",
        "meta_epoch": "2025-12-23T06:54:40.562208",
        "meta_mean_motion": 2.00561768,
        "meta_eccentricity": 0.00606476,
        "meta_inclination": 56.5539,
        "meta_ra_of_asc_node": 35.7754,
        "meta_arg_of_pericenter": 203.7047,
        "meta_mean_anomaly": 196.9972,
        "meta_ephemeris_type": 0,
        "meta_classification_type": "U",
        "meta_norad_cat_id": 45854,
        "meta_element_set_no": 999,
        "meta_rev_at_epoch": 4051,
        "meta_bstar": 0,
        "meta_mean_motion_dot": -4.9e-07,
        "meta_mean_motion_ddot": 0,
        "tle_line1": "1 45854U 20041A   25357.28796947 -.00000049  00000+0  00000+0 0  9999",
        "tle_line2": "2 45854  56.5539  35.7754 0060647 203.7047 196.9972  2.00561768 40516"
      },
      "geometry": {
        "type": "Point",
        "coordinates": [
          -179.25112648573838,
          40.96288680948033
        ]
      }
    },
    {
      "type": "Feature",
      "properties": {
        "norad_id": 46826,
        "name": "GPS BIII-4  (PRN 14)",
        "group": "gps-ops",
        "lat": 52.94285369880626,
        "lon": -36.33179895403216,
        "alt_km": 20216.973395827503,
        "timestamp": "2025-12-24T09:46:31.263200+00:00",
        "meta_object_name": "GPS BIII-4  (PRN 14)",
        "meta_object_id": "2020-078A",
        "meta_epoch": "2025-12-16T01:06:13.902336",
        "meta_mean_motion": 2.00566891,
        "meta_eccentricity": 0.00647535,
        "meta_inclination": 54.0144,
        "meta_ra_of_asc_node": 218.2068,
        "meta_arg_of_pericenter": 203.3802,
        "meta_mean_anomaly": 339.3962,
        "meta_ephemeris_type": 0,
        "meta_classification_type": "U",
        "meta_norad_cat_id": 46826,
        "meta_element_set_no": 999,
        "meta_rev_at_epoch": 3783,
        "meta_bstar": 0,
        "meta_mean_motion_dot": 6.7e-07,
        "meta_mean_motion_ddot": 0,
        "tle_line1": "1 46826U 20078A   25350.04599424  .00000067  00000+0  00000+0 0  9996",
        "tle_line2": "2 46826  54.0144 218.2068 0064753 203.3802 339.3962  2.00566891 37839"
      },
      "geometry": {
        "type": "Point",
        "coordinates": [
          -36.33179895403216,
          52.94285369880626
        ]
      }
    }
  ]
}